{
  "type": "FeatureCollection",
  "features": [
    {
      "type": "Feature",
      "properties": {
        "norad_id": 66401,
        "name": "STARLINK-35668",
        "group": "last-30-days",
        "lat": -32.478946246439676,
        "lon": 145.91313068477578,
        "alt_km": 423.21707601198705,
        "timestamp": "2025-12-05T16:54:13.484914+00:00",
        "meta_object_name": "STARLINK-35668",
        "meta_object_id": "2025-257X",
        "meta_epoch": "2025-12-05T05:06:53.192160",
        "meta_mean_motion": 15.50047442,
        "meta_eccentricity": 0.00018795,
        "meta_inclination": 53.1594,
        "meta_ra_of_asc_node": 299.758,
        "meta_arg_of_pericenter": 109.8667,
        "meta_mean_anomaly": 250.2545,
        "meta_ephemeris_type": 0,
        "meta_classification_type": "U",
        "meta_norad_cat_id": 66401,
        "meta_element_set_no": 999,
        "meta_rev_at_epoch": 521,
        "meta_bstar": -0.013107939,
        "meta_mean_motion_dot": -0.00686536,
        "meta_mean_motion_ddot": 0,
        "tle_line1": "1 66401U 25257X   25339.21311565 -.00686536  00000+0 -13108-1 0  9993",
        "tle_line2": "2 66401  53.1594 299.7580 0001879 109.8667 250.2545 15.50047442  5211"
      },
      "geometry": {
        "type": "Point",
        "coordinates": [
          145.91313068477578,
          -32.478946246439676
        ]
      }
    },
    {
      "type": "Feature",
      "properties": {
        "norad_id": 66402,
        "name": "STARLINK-35644",
        "group": "last-30-days",
        "lat": -29.81517552806032,
        "lon": 142.85969821424433,
        "alt_km": 422.00350280194107,
        "timestamp": "2025-12-05T16:54:13.484924+00:00",
        "meta_object_name": "STARLINK-35644",
        "meta_object_id": "2025-257Y",
        "meta_epoch": "2025-12-05T06:40:43.900032",
        "meta_mean_motion": 15.50041017,
        "meta_eccentricity": 9.514e-05,
        "meta_inclination": 53.1592,
        "meta_ra_of_asc_node": 299.4536,
        "meta_arg_of_pericenter": 148.2149,
        "meta_mean_anomaly": 211.8918,
        "meta_ephemeris_type": 0,
        "meta_classification_type": "U",
        "meta_norad_cat_id": 66402,
        "meta_element_set_no": 999,
        "meta_rev_at_epoch": 522,
        "meta_bstar": -0.013016523,
        "meta_mean_motion_dot": -0.00681842,
        "meta_mean_motion_ddot": 0,
        "tle_line1": "1 66402U 25257Y   25339.27828588 -.00681842  00000+0 -13017-1 0  9992",
        "tle_line2": "2 66402  53.1592 299.4536 0000951 148.2149 211.8918 15.50041017  5220"
      },
      "geometry": {
        "type": "Point",
        "coordinates": [
          142.85969821424433,
          -29.81517552806032
        ]
      }
    },
    {
      "type": "Feature",
      "properties": {
        "norad_id": 66403,
        "name": "STARLINK-35602",
        "group": "last-30-days",
        "lat": -29.278046720064527,
        "lon": 142.27298707875556,
        "alt_km": 426.3798888354504,
        "timestamp": "2025-12-05T16:54:13.484933+00:00",
        "meta_object_name": "STARLINK-35602",
        "meta_object_id": "2025-257Z",
        "meta_epoch": "2025-12-05T06:40:10.218720",
        "meta_mean_motion": 15.47908574,
        "meta_eccentricity": 0.00036862,
        "meta_inclination": 53.1592,
        "meta_ra_of_asc_node": 299.451,
        "meta_arg_of_pericenter": 297.9117,
        "meta_mean_anomaly": 62.1518,
        "meta_ephemeris_type": 0,
        "meta_classification_type": "U",
        "meta_norad_cat_id": 66403,
        "meta_element_set_no": 999,
        "meta_rev_at_epoch": 522,
        "meta_bstar": -0.00078917003,
        "meta_mean_motion_dot": -0.00042019,
        "meta_mean_motion_ddot": 0,
        "tle_line1": "1 66403U 25257Z   25339.27789605 -.00042019  00000+0 -78917-3 0  9998",
        "tle_line2": "2 66403  53.1592 299.4510 0003686 297.9117  62.1518 15.47908574  5227"
      },
      "geometry": {
        "type": "Point",
        "coordinates": [
          142.27298707875556,
          -29.278046720064527
        ]
      }
    },
    {
      "type": "Feature",
      "properties": {
        "norad_id": 66404,
        "name": "STARLINK-35691",
        "group": "last-30-days",
        "lat": -33.642086644585504,
        "lon": 147.3319825954276,
        "alt_km": 422.7975095251031,
        "timestamp": "2025-12-05T16:54:13.484942+00:00",
        "meta_object_name": "STARLINK-35691",
        "meta_object_id": "2025-257AA",
        "meta_epoch": "2025-12-05T06:39:12.533760",
        "meta_mean_motion": 15.49346402,
        "meta_eccentricity": 8.916e-05,
        "meta_inclination": 53.1591,
        "meta_ra_of_asc_node": 299.4462,
        "meta_arg_of_pericenter": 83.1042,
        "meta_mean_anomaly": 277.0069,
        "meta_ephemeris_type": 0,
        "meta_classification_type": "U",
        "meta_norad_cat_id": 66404,
        "meta_element_set_no": 999,
        "meta_rev_at_epoch": 522,
        "meta_bstar": 0.002466521,
        "meta_mean_motion_dot": 0.00139387,
        "meta_mean_motion_ddot": 0,
        "tle_line1": "1 66404U 25257AA  25339.27722840  .00139387  00000+0  24665-2 0  9990",
        "tle_line2": "2 66404  53.1591 299.4462 0000891  83.1042 277.0069 15.49346402  5226"
      },
      "geometry": {
        "type": "Point",
        "coordinates": [
          147.3319825954276,
          -33.642086644585504
        ]
      }
    },
    {
      "type": "Feature",
      "properties": {
        "norad_id": 66405,
        "name": "STARLINK-35683",
        "group": "last-30-days",
        "lat": -34.8903907276437,
        "lon": 148.92150661530468,
        "alt_km": 423.2727041438002,
        "timestamp": "2025-12-05T16:54:13.484951+00:00",
        "meta_object_name": "STARLINK-35683",
        "meta_object_id": "2025-257AB",
        "meta_epoch": "2025-12-05T03:32:55.910112",
        "meta_mean_motion": 15.49296572,
        "meta_eccentricity": 0.00011798,
        "meta_inclination": 53.1594,
        "meta_ra_of_asc_node": 300.0603,
        "meta_arg_of_pericenter": 87.8456,
        "meta_mean_anomaly": 272.2688,
        "meta_ephemeris_type": 0,
        "meta_classification_type": "U",
        "meta_norad_cat_id": 66405,
        "meta_element_set_no": 999,
        "meta_rev_at_epoch": 513,
        "meta_bstar": 0.0011542428,
        "meta_mean_motion_dot": 0.00064247,
        "meta_mean_motion_ddot": 0,
        "tle_line1": "1 66405U 25257AB  25339.14786933  .00064247  00000+0  11542-2 0  9992",
        "tle_line2": "2 66405  53.1594 300.0603 0001179  87.8456 272.2688 15.49296572  5132"
      },
      "geometry": {
        "type": "Point",
        "coordinates": [
          148.92150661530468,
          -34.8903907276437
        ]
      }
    },
    {
      "type": "Feature",
      "properties": {
        "norad_id": 66406,
        "name": "STARLINK-34840",
        "group": "last-30-days",
        "lat": -38.759803773859645,
        "lon": 154.39651741587664,
        "alt_km": 423.04455371819495,
        "timestamp": "2025-12-05T16:54:13.484962+00:00",
        "meta_object_name": "STARLINK-34840",
        "meta_object_id": "2025-257AC",
        "meta_epoch": "2025-12-05T06:37:13.755360",
        "meta_mean_motion": 15.49345602,
        "meta_eccentricity": 9.026e-05,
        "meta_inclination": 53.1589,
        "meta_ra_of_asc_node": 299.4365,
        "meta_arg_of_pericenter": 91.8287,
        "meta_mean_anomaly": 268.2825,
        "meta_ephemeris_type": 0,
        "meta_classification_type": "U",
        "meta_norad_cat_id": 66406,
        "meta_element_set_no": 999,
        "meta_rev_at_epoch": 516,
        "meta_bstar": 0.0025802698,
        "meta_mean_motion_dot": 0.00145955,
        "meta_mean_motion_ddot": 0,
        "tle_line1": "1 66406U 25257AC  25339.27585365  .00145955  00000+0  25803-2 0  9994",
        "tle_line2": "2 66406  53.1589 299.4365 0000902  91.8287 268.2825 15.49345602  5163"
      },
      "geometry": {
        "type": "Point",
        "coordinates": [
          154.39651741587664,
          -38.759803773859645
        ]
      }
    },
    {
      "type": "Feature",
      "properties": {
        "norad_id": 66407,
        "name": "STARLINK-35686",
        "group": "last-30-days",
        "lat": -40.280958468228405,
        "lon": 156.8317063185709,
        "alt_km": 409.68491807344617,
        "timestamp": "2025-12-05T16:54:13.484971+00:00",
        "meta_object_name": "STARLINK-35686",
        "meta_object_id": "2025-257AD",
        "meta_epoch": "2025-12-05T05:04:43.288896",
        "meta_mean_motion": 15.51267271,
        "meta_eccentricity": 0.00081315,
        "meta_inclination": 53.1592,
        "meta_ra_of_asc_node": 299.7469,
        "meta_arg_of_pericenter": 236.5195,
        "meta_mean_anomaly": 123.5038,
        "meta_ephemeris_type": 0,
        "meta_classification_type": "U",
        "meta_norad_cat_id": 66407,
        "meta_element_set_no": 999,
        "meta_rev_at_epoch": 521,
        "meta_bstar": 0.013052692,
        "meta_mean_motion_dot": 0.00853869,
        "meta_mean_motion_ddot": 0,
        "tle_line1": "1 66407U 25257AD  25339.21161214  .00853869  00000+0  13053-1 0  9995",
        "tle_line2": "2 66407  53.1592 299.7469 0008131 236.5195 123.5038 15.51267271  5217"
      },
      "geometry": {
        "type": "Point",
        "coordinates": [
          156.8317063185709,
          -40.280958468228405
        ]
      }
    }
  ]
}